NAVSTAR 77 (USA 289)    
1 43873U 18109A   24258.85140356  .00000045  00000+0  00000+0 0  9994
2 43873  55.3306 117.4841 0030629 192.2294 177.5793  2.00559614 42180
